ONEWEB-0514             
1 54132U 22138V   26085.38054961  .00000084  00000+0  17814-3 0  9993
2 54132  87.9202 321.4707 0001618  80.1587 279.9729 13.19725986165901
ONEWEB-0515             
1 54133U 22138W   26085.92274778  .00000042  00000+0  70491-4 0  9999
2 54133  87.9152 290.8512 0001902  61.7501 298.3825 13.20770838168448
ONEWEB-0516             
1 54134U 22138X   26085.58273254  .00000019  00000+0  15274-4 0  9992
2 54134  87.9200 321.4422 0001858  82.1488 277.9856 13.19726220165937
ONEWEB-0517             
1 54135U 22138Y   26085.63801330 -.00000039  00000+0 -12924-3 0  9993
2 54135  87.9199 321.4204 0001460  87.9074 272.2226 13.19725461165942
ONEWEB-0518             
1 54136U 22138Z   26085.58115024  .00000031  00000+0  45406-4 0  9998
2 54136  87.9200 321.4441 0001851  86.4680 273.6664 13.19725858165930
ONEWEB-0519             
1 54137U 22138AA  26085.60642136  .00000078  00000+0  16257-3 0  9993
2 54137  87.9212 321.4206 0001531  87.3690 272.7618 13.19726289165948
ONEWEB-0520             
1 54138U 22138AB  26085.11045594  .00000007  00000+0 -13966-4 0  9993
2 54138  87.9203 321.5241 0001893  87.8591 272.2758 13.19726085165860
ONEWEB-0521             
1 54139U 22138AC  26085.59852710  .00000126  00000+0  28172-3 0  9997
2 54139  87.9216 321.4119 0001488  83.8823 276.2479 13.19725908165870
ONEWEB-0522             
1 54140U 22138AD  26085.65380359 -.00000010  00000+0 -58042-4 0  9995
2 54140  87.9212 321.4027 0001793  87.0828 273.0510 13.19725776165926
ONEWEB-0523             
1 54141U 22138AE  26085.30406602 -.00000063  00000+0 -18739-3 0  9994
2 54141  87.9152 290.9891 0001333  62.1122 298.0146 13.20771043168363
ONEWEB-0524             
1 54142U 22138AF  26085.97483377 -.00000001  00000+0 -34482-4 0  9998
2 54142  87.9141 290.8535 0002085  65.1071 295.0279 13.20771254168455
ONEWEB-0525             
1 54143U 22138AG  26085.06623124  .00000063  00000+0  12423-3 0  9991
2 54143  87.9203 321.5324 0001969  88.1409 271.9949 13.19725542165869
ONEWEB-0526             
1 54144U 22138AH  26085.63010733 -.00000013  00000+0 -65383-4 0  9992
2 54144  87.9213 321.4165 0001878  83.1783 276.9563 13.19726433165915
