[
    {
      "OBJECT_NAME": "ONEWEB-0514",
      "OBJECT_ID": "2022-138V",
      "EPOCH": "2026-03-26T09:07:59.486304",
      "MEAN_MOTION": 13.19725986,
      "ECCENTRICITY": 0.00016188,
      "INCLINATION": 87.9202,
      "RA_OF_ASC_NODE": 321.4707,
      "ARG_OF_PERICENTER": 80.1587,
      "MEAN_ANOMALY": 279.9729,
      "EPHEMERIS_TYPE": 0,
      "CLASSIFICATION_TYPE": "U",
      "NORAD_CAT_ID": 54132,
      "ELEMENT_SET_NO": 999,
      "REV_AT_EPOCH": 16590,
      "BSTAR": 0.00017814216,
      "MEAN_MOTION_DOT": 8.4e-7,
      "MEAN_MOTION_DDOT": 0
    },
    {
      "OBJECT_NAME": "ONEWEB-0515",
      "OBJECT_ID": "2022-138W",
      "EPOCH": "2026-03-26T22:08:45.408192",
      "MEAN_MOTION": 13.20770838,
      "ECCENTRICITY": 0.00019024,
      "INCLINATION": 87.9152,
      "RA_OF_ASC_NODE": 290.8512,
      "ARG_OF_PERICENTER": 61.7501,
      "MEAN_ANOMALY": 298.3825,
      "EPHEMERIS_TYPE": 0,
      "CLASSIFICATION_TYPE": "U",
      "NORAD_CAT_ID": 54133,
      "ELEMENT_SET_NO": 999,
      "REV_AT_EPOCH": 16844,
      "BSTAR": 0.000070491347,
      "MEAN_MOTION_DOT": 4.2e-7,
      "MEAN_MOTION_DDOT": 0
    },
    {
      "OBJECT_NAME": "ONEWEB-0516",
      "OBJECT_ID": "2022-138X",
      "EPOCH": "2026-03-26T13:59:08.091456",
      "MEAN_MOTION": 13.1972622,
      "ECCENTRICITY": 0.00018588,
      "INCLINATION": 87.92,
      "RA_OF_ASC_NODE": 321.4422,
      "ARG_OF_PERICENTER": 82.1488,
      "MEAN_ANOMALY": 277.9856,
      "EPHEMERIS_TYPE": 0,
      "CLASSIFICATION_TYPE": "U",
      "NORAD_CAT_ID": 54134,
      "ELEMENT_SET_NO": 999,
      "REV_AT_EPOCH": 16593,
      "BSTAR": 0.000015273792,
      "MEAN_MOTION_DOT": 1.9e-7,
      "MEAN_MOTION_DDOT": 0
    },
    {
      "OBJECT_NAME": "ONEWEB-0517",
      "OBJECT_ID": "2022-138Y",
      "EPOCH": "2026-03-26T15:18:44.349120",
      "MEAN_MOTION": 13.19725461,
      "ECCENTRICITY": 0.00014602,
      "INCLINATION": 87.9199,
      "RA_OF_ASC_NODE": 321.4204,
      "ARG_OF_PERICENTER": 87.9074,
      "MEAN_ANOMALY": 272.2226,
      "EPHEMERIS_TYPE": 0,
      "CLASSIFICATION_TYPE": "U",
      "NORAD_CAT_ID": 54135,
      "ELEMENT_SET_NO": 999,
      "REV_AT_EPOCH": 16594,
      "BSTAR": -0.00012924481,
      "MEAN_MOTION_DOT": -3.9e-7,
      "MEAN_MOTION_DDOT": 0
    },
    {
      "OBJECT_NAME": "ONEWEB-0518",
      "OBJECT_ID": "2022-138Z",
      "EPOCH": "2026-03-26T13:56:51.380736",
      "MEAN_MOTION": 13.19725858,
      "ECCENTRICITY": 0.00018511,
      "INCLINATION": 87.92,
      "RA_OF_ASC_NODE": 321.4441,
      "ARG_OF_PERICENTER": 86.468,
      "MEAN_ANOMALY": 273.6664,
      "EPHEMERIS_TYPE": 0,
      "CLASSIFICATION_TYPE": "U",
      "NORAD_CAT_ID": 54136,
      "ELEMENT_SET_NO": 999,
      "REV_AT_EPOCH": 16593,
      "BSTAR": 0.000045405854,
      "MEAN_MOTION_DOT": 3.1e-7,
      "MEAN_MOTION_DDOT": 0
    },
    {
      "OBJECT_NAME": "ONEWEB-0519",
      "OBJECT_ID": "2022-138AA",
      "EPOCH": "2026-03-26T14:33:14.805504",
      "MEAN_MOTION": 13.19726289,
      "ECCENTRICITY": 0.00015317,
      "INCLINATION": 87.9212,
      "RA_OF_ASC_NODE": 321.4206,
      "ARG_OF_PERICENTER": 87.369,
      "MEAN_ANOMALY": 272.7618,
      "EPHEMERIS_TYPE": 0,
      "CLASSIFICATION_TYPE": "U",
      "NORAD_CAT_ID": 54137,
      "ELEMENT_SET_NO": 999,
      "REV_AT_EPOCH": 16594,
      "BSTAR": 0.00016257067,
      "MEAN_MOTION_DOT": 7.8e-7,
      "MEAN_MOTION_DDOT": 0
    },
    {
      "OBJECT_NAME": "ONEWEB-0520",
      "OBJECT_ID": "2022-138AB",
      "EPOCH": "2026-03-26T02:39:03.393216",
      "MEAN_MOTION": 13.19726085,
      "ECCENTRICITY": 0.0001893,
      "INCLINATION": 87.9203,
      "RA_OF_ASC_NODE": 321.5241,
      "ARG_OF_PERICENTER": 87.8591,
      "MEAN_ANOMALY": 272.2758,
      "EPHEMERIS_TYPE": 0,
      "CLASSIFICATION_TYPE": "U",
      "NORAD_CAT_ID": 54138,
      "ELEMENT_SET_NO": 999,
      "REV_AT_EPOCH": 16586,
      "BSTAR": -0.000013966152,
      "MEAN_MOTION_DOT": 7e-8,
      "MEAN_MOTION_DDOT": 0
    },
    {
      "OBJECT_NAME": "ONEWEB-0521",
      "OBJECT_ID": "2022-138AC",
      "EPOCH": "2026-03-26T14:21:52.741440",
      "MEAN_MOTION": 13.19725908,
      "ECCENTRICITY": 0.00014886,
      "INCLINATION": 87.9216,
      "RA_OF_ASC_NODE": 321.4119,
      "ARG_OF_PERICENTER": 83.8823,
      "MEAN_ANOMALY": 276.2479,
      "EPHEMERIS_TYPE": 0,
      "CLASSIFICATION_TYPE": "U",
      "NORAD_CAT_ID": 54139,
      "ELEMENT_SET_NO": 999,
      "REV_AT_EPOCH": 16587,
      "BSTAR": 0.0002817215,
      "MEAN_MOTION_DOT": 0.00000126,
      "MEAN_MOTION_DDOT": 0
    },
    {
      "OBJECT_NAME": "ONEWEB-0522",
      "OBJECT_ID": "2022-138AD",
      "EPOCH": "2026-03-26T15:41:28.630176",
      "MEAN_MOTION": 13.19725776,
      "ECCENTRICITY": 0.00017939,
      "INCLINATION": 87.9212,
      "RA_OF_ASC_NODE": 321.4027,
      "ARG_OF_PERICENTER": 87.0828,
      "MEAN_ANOMALY": 273.051,
      "EPHEMERIS_TYPE": 0,
      "CLASSIFICATION_TYPE": "U",
      "NORAD_CAT_ID": 54140,
      "ELEMENT_SET_NO": 999,
      "REV_AT_EPOCH": 16592,
      "BSTAR": -0.000058042021,
      "MEAN_MOTION_DOT": -1e-7,
      "MEAN_MOTION_DDOT": 0
    },
    {
      "OBJECT_NAME": "ONEWEB-0523",
      "OBJECT_ID": "2022-138AE",
      "EPOCH": "2026-03-26T07:17:51.304128",
      "MEAN_MOTION": 13.20771043,
      "ECCENTRICITY": 0.0001333,
      "INCLINATION": 87.9152,
      "RA_OF_ASC_NODE": 290.9891,
      "ARG_OF_PERICENTER": 62.1122,
      "MEAN_ANOMALY": 298.0146,
      "EPHEMERIS_TYPE": 0,
      "CLASSIFICATION_TYPE": "U",
      "NORAD_CAT_ID": 54141,
      "ELEMENT_SET_NO": 999,
      "REV_AT_EPOCH": 16836,
      "BSTAR": -0.00018739479,
      "MEAN_MOTION_DOT": -6.3e-7,
      "MEAN_MOTION_DDOT": 0
    },
    {
      "OBJECT_NAME": "ONEWEB-0524",
      "OBJECT_ID": "2022-138AF",
      "EPOCH": "2026-03-26T23:23:45.637728",
      "MEAN_MOTION": 13.20771254,
      "ECCENTRICITY": 0.00020853,
      "INCLINATION": 87.9141,
      "RA_OF_ASC_NODE": 290.8535,
      "ARG_OF_PERICENTER": 65.1071,
      "MEAN_ANOMALY": 295.0279,
      "EPHEMERIS_TYPE": 0,
      "CLASSIFICATION_TYPE": "U",
      "NORAD_CAT_ID": 54142,
      "ELEMENT_SET_NO": 999,
      "REV_AT_EPOCH": 16845,
      "BSTAR": -0.000034481596,
      "MEAN_MOTION_DOT": -1e-8,
      "MEAN_MOTION_DDOT": 0
    },
    {
      "OBJECT_NAME": "ONEWEB-0525",
      "OBJECT_ID": "2022-138AG",
      "EPOCH": "2026-03-26T01:35:22.379136",
      "MEAN_MOTION": 13.19725542,
      "ECCENTRICITY": 0.00019692,
      "INCLINATION": 87.9203,
      "RA_OF_ASC_NODE": 321.5324,
      "ARG_OF_PERICENTER": 88.1409,
      "MEAN_ANOMALY": 271.9949,
      "EPHEMERIS_TYPE": 0,
      "CLASSIFICATION_TYPE": "U",
      "NORAD_CAT_ID": 54143,
      "ELEMENT_SET_NO": 999,
      "REV_AT_EPOCH": 16586,
      "BSTAR": 0.00012422985,
      "MEAN_MOTION_DOT": 6.3e-7,
      "MEAN_MOTION_DDOT": 0
    },
    {
      "OBJECT_NAME": "ONEWEB-0526",
      "OBJECT_ID": "2022-138AH",
      "EPOCH": "2026-03-26T15:07:21.273312",
      "MEAN_MOTION": 13.19726433,
      "ECCENTRICITY": 0.00018788,
      "INCLINATION": 87.9213,
      "RA_OF_ASC_NODE": 321.4165,
      "ARG_OF_PERICENTER": 83.1783,
      "MEAN_ANOMALY": 276.9563,
      "EPHEMERIS_TYPE": 0,
      "CLASSIFICATION_TYPE": "U",
      "NORAD_CAT_ID": 54144,
      "ELEMENT_SET_NO": 999,
      "REV_AT_EPOCH": 16591,
      "BSTAR": -0.000065383366,
      "MEAN_MOTION_DOT": -1.3e-7,
      "MEAN_MOTION_DDOT": 0
    }
  ]
